{"type": "FeatureCollection", "features": [ {"type": "Feature", "properties": {"norad_id": 66564, "name": "STARLINK-35358", "group": "last-30-days", "lat": 28.556743038512707, "lon": -162.52138385009755, "alt_km": 401.2262003726473, "timestamp": "2025-12-24T07:45:04.930077+00:00", "meta": {"OBJECT_NAME": "STARLINK-35358", "OBJECT_ID": "2025-268H", "EPOCH": "2025-12-24T00:00:00.999648", "MEAN_MOTION": 15.55536736, "ECCENTRICITY": 0.00012829, "INCLINATION": 43.0003, "RA_OF_ASC_NODE": 55.1151, "ARG_OF_PERICENTER": 276.52, "MEAN_ANOMALY": 209.0424, "EPHEMERIS_TYPE": 0, "CLASSIFICATION_TYPE": "U", "NORAD_CAT_ID": 66564, "ELEMENT_SET_NO": 999, "REV_AT_EPOCH": 610, "BSTAR": -0.033743617, "MEAN_MOTION_DOT": -0.02107039, "MEAN_MOTION_DDOT": 0}, "tle": {"line1": "1 66564U 25268H   25358.00001157 -.02107039  00000+0 -33744-1 0  9992", "line2": "2 66564  43.0003  55.1151 0001282 276.5200 209.0424 15.55536736  6106"}}, "geometry": {"type": "Point", "coordinates": [-162.52138385009755, 28.556743038512707]}}, {"type": "Feature", "properties": {"norad_id": 66565, "name": "STARLINK-35893", "group": "last-30-days", "lat": 26.742902618431042, "lon": -159.52809592422685, "alt_km": 398.83033664617415, "timestamp": "2025-12-24T07:45:04.930088+00:00", "meta": {"OBJECT_NAME": "STARLINK-35893", "OBJECT_ID": "2025-268J", "EPOCH": "2025-12-24T00:00:00.999648", "MEAN_MOTION": 15.56366693, "ECCENTRICITY": 0.00011801, "INCLINATION": 43.0006, "RA_OF_ASC_NODE": 55.109, "ARG_OF_PERICENTER": 265.6681, "MEAN_ANOMALY": 222.1386, "EPHEMERIS_TYPE": 0, "CLASSIFICATION_TYPE": "U", "NORAD_CAT_ID": 66565, "ELEMENT_SET_NO": 999, "REV_AT_EPOCH": 610, "BSTAR": -0.032507472, "MEAN_MOTION_DOT": -0.02095315, "MEAN_MOTION_DDOT": 0}, "tle": {"line1": "1 66565U 25268J   25358.00001157 -.02095315  00000+0 -32507-1 0  9992", "line2": "2 66565  43.0006  55.1090 0001180 265.6681 222.1386 15.56366693  6108"}}, "geometry": {"type": "Point", "coordinates": [-159.52809592422685, 26.742902618431042]}}, {"type": "Feature", "properties": {"norad_id": 66566, "name": "STARLINK-35871", "group": "last-30-days", "lat": 25.323532662682872, "lon": -157.31806208732564, "alt_km": 397.58429273642014, "timestamp": "2025-12-24T07:45:04.930099+00:00", "meta": {"OBJECT_NAME": "STARLINK-35871", "OBJECT_ID": "2025-268K", "EPOCH": "2025-12-24T00:00:00.999648", "MEAN_MOTION": 15.56787862, "ECCENTRICITY": 0.00013692, "INCLINATION": 43.0007, "RA_OF_ASC_NODE": 55.1044, "ARG_OF_PERICENTER": 268.4288, "MEAN_ANOMALY": 221.2622, "EPHEMERIS_TYPE": 0, "CLASSIFICATION_TYPE": "U", "NORAD_CAT_ID": 66566, "ELEMENT_SET_NO": 999, "REV_AT_EPOCH": 610, "BSTAR": -0.029428242, "MEAN_MOTION_DOT": -0.01909981, "MEAN_MOTION_DDOT": 0}, "tle": {"line1": "1 66566U 25268K   25358.00001157 -.01909981  00000+0 -29428-1 0  9993", "line2": "2 66566  43.0007  55.1044 0001369 268.4288 221.2622 15.56787862  6100"}}, "geometry": {"type": "Point", "coordinates": [-157.31806208732564, 25.323532662682872]}}, {"type": "Feature", "properties": {"norad_id": 66567, "name": "STARLINK-35825", "group": "last-30-days", "lat": 23.997316146878834, "lon": -155.34315602829992, "alt_km": 395.9266381562611, "timestamp": "2025-12-24T07:45:04.930117+00:00", "meta": {"OBJECT_NAME": "STARLINK-35825", "OBJECT_ID": "2025-268L", "EPOCH": "2025-12-24T00:00:00.999648", "MEAN_MOTION": 15.5679621, "ECCENTRICITY": 8.528e-05, "INCLINATION": 43.0004, "RA_OF_ASC_NODE": 55.0999, "ARG_OF_PERICENTER": 273.9574, "MEAN_ANOMALY": 217.6216, "EPHEMERIS_TYPE": 0, "CLASSIFICATION_TYPE": "U", "NORAD_CAT_ID": 66567, "ELEMENT_SET_NO": 999, "REV_AT_EPOCH": 610, "BSTAR": -0.017200681, "MEAN_MOTION_DOT": -0.01142155, "MEAN_MOTION_DDOT": 0}, "tle": {"line1": "1 66567U 25268L   25358.00001157 -.01142155  00000+0 -17201-1 0  9992", "line2": "2 66567  43.0004  55.0999 0000852 273.9574 217.6216 15.56796210  6106"}}, "geometry": {"type": "Point", "coordinates": [-155.34315602829992, 23.997316146878834]}}, {"type": "Feature", "properties": {"norad_id": 66568, "name": "STARLINK-35803", "group": "last-30-days", "lat": 35.23354169803636, "lon": -176.0385394925256, "alt_km": 394.2211285100575, "timestamp": "2025-12-24T07:45:04.930128+00:00", "meta": {"OBJECT_NAME": "STARLINK-35803", "OBJECT_ID": "2025-268M", "EPOCH": "2025-12-24T00:00:00.999648", "MEAN_MOTION": 15.56750844, "ECCENTRICITY": 0.00011225, "INCLINATION": 43.0004, "RA_OF_ASC_NODE": 55.1511, "ARG_OF_PERICENTER": 260.284, "MEAN_ANOMALY": 210.1501, "EPHEMERIS_TYPE": 0, "CLASSIFICATION_TYPE": "U", "NORAD_CAT_ID": 66568, "ELEMENT_SET_NO": 999, "REV_AT_EPOCH": 610, "BSTAR": -0.015711134, "MEAN_MOTION_DOT": -0.01050456, "MEAN_MOTION_DDOT": 0}, "tle": {"line1": "1 66568U 25268M   25358.00001157 -.01050456  00000+0 -15711-1 0  9999", "line2": "2 66568  43.0004  55.1511 0001122 260.2840 210.1501 15.56750844  6102"}}, "geometry": {"type": "Point", "coordinates": [-176.0385394925256, 35.23354169803636]}}, {"type": "Feature", "properties": {"norad_id": 66569, "name": "STARLINK-35835", "group": "last-30-days", "lat": 21.60510893285817, "lon": -151.96617378743218, "alt_km": 395.2797500264487, "timestamp": "2025-12-24T07:45:04.930139+00:00", "meta": {"OBJECT_NAME": "STARLINK-35835", "OBJECT_ID": "2025-268N", "EPOCH": "2025-12-24T00:00:00.999648", "MEAN_MOTION": 15.564214, "ECCENTRICITY": 0.00015731, "INCLINATION": 43.0004, "RA_OF_ASC_NODE": 55.0901, "ARG_OF_PERICENTER": 274.0366, "MEAN_ANOMALY": 221.4441, "EPHEMERIS_TYPE": 0, "CLASSIFICATION_TYPE": "U", "NORAD_CAT_ID": 66569, "ELEMENT_SET_NO": 999, "REV_AT_EPOCH": 610, "BSTAR": -4.2112394e-05, "MEAN_MOTION_DOT": -3.423e-05, "MEAN_MOTION_DDOT": 0}, "tle": {"line1": "1 66569U 25268N   25358.00001157 -.00003423  00000+0 -42112-4 0  9999", "line2": "2 66569  43.0004  55.0901 0001573 274.0366 221.4441 15.56421400  6102"}}, "geometry": {"type": "Point", "coordinates": [-151.96617378743218, 21.60510893285817]}}, {"type": "Feature", "properties": {"norad_id": 66570, "name": "STARLINK-35834", "group": "last-30-days", "lat": 41.222676164228446, "lon": 123.44158880991108, "alt_km": 432.4516956317739, "timestamp": "2025-12-24T07:45:04.930149+00:00", "meta": {"OBJECT_NAME": "STARLINK-35834", "OBJECT_ID": "2025-268P", "EPOCH": "2025-12-24T00:00:00.999648", "MEAN_MOTION": 15.44271577, "ECCENTRICITY": 0.0001694, "INCLINATION": 43.0006, "RA_OF_ASC_NODE": 55.2283, "ARG_OF_PERICENTER": 277.658, "MEAN_ANOMALY": 160.7492, "EPHEMERIS_TYPE": 0, "CLASSIFICATION_TYPE": "U", "NORAD_CAT_ID": 66570, "ELEMENT_SET_NO": 999, "REV_AT_EPOCH": 610, "BSTAR": -0.048835234, "MEAN_MOTION_DOT": -0.02045238, "MEAN_MOTION_DDOT": 0}, "tle": {"line1": "1 66570U 25268P   25358.00001157 -.02045238  00000+0 -48835-1 0  9998", "line2": "2 66570  43.0006  55.2283 0001694 277.6580 160.7492 15.44271577  6108"}}, "geometry": {"type": "Point", "coordinates": [123.44158880991108, 41.222676164228446]}}, {"type": "Feature", "properties": {"norad_id": 66571, "name": "STARLINK-35836", "group": "last-30-days", "lat": 42.844413175656726, "lon": 137.75613948853754, "alt_km": 429.87278499468084, "timestamp": "2025-12-24T07:45:04.930159+00:00", "meta": {"OBJECT_NAME": "STARLINK-35836", "OBJECT_ID": "2025-268Q", "EPOCH": "2025-12-24T00:00:00.999648", "MEAN_MOTION": 15.45101435, "ECCENTRICITY": 0.00018111, "INCLINATION": 43.0003, "RA_OF_ASC_NODE": 55.205, "ARG_OF_PERICENTER": 278.4619, "MEAN_ANOMALY": 169.7182, "EPHEMERIS_TYPE": 0, "CLASSIFICATION_TYPE": "U", "NORAD_CAT_ID": 66571, "ELEMENT_SET_NO": 999, "REV_AT_EPOCH": 610, "BSTAR": -0.046995349, "MEAN_MOTION_DOT": -0.02027526, "MEAN_MOTION_DDOT": 0}, "tle": {"line1": "1 66571U 25268Q   25358.00001157 -.02027526  00000+0 -46995-1 0  9994", "line2": "2 66571  43.0003  55.2050 0001811 278.4619 169.7182 15.45101435  6102"}}, "geometry": {"type": "Point", "coordinates": [137.75613948853754, 42.844413175656726]}}, {"type": "Feature", "properties": {"norad_id": 66572, "name": "STARLINK-35870", "group": "last-30-days", "lat": 41.85892267829515, "lon": 159.25211420485402, "alt_km": 425.596699035249, "timestamp": "2025-12-24T07:45:04.930170+00:00", "meta": {"OBJECT_NAME": "STARLINK-35870", "OBJECT_ID": "2025-268R", "EPOCH": "2025-12-24T00:00:00.999648", "MEAN_MOTION": 15.46554242, "ECCENTRICITY": 0.0001453, "INCLINATION": 43.0003, "RA_OF_ASC_NODE": 55.1712, "ARG_OF_PERICENTER": 276.0713, "MEAN_ANOMALY": 186.311, "EPHEMERIS_TYPE": 0, "CLASSIFICATION_TYPE": "U", "NORAD_CAT_ID": 66572, "ELEMENT_SET_NO": 999, "REV_AT_EPOCH": 610, "BSTAR": -0.04522929, "MEAN_MOTION_DOT": -0.02049368, "MEAN_MOTION_DDOT": 0}, "tle": {"line1": "1 66572U 25268R   25358.00001157 -.02049368  00000+0 -45229-1 0  9992", "line2": "2 66572  43.0003  55.1712 0001453 276.0713 186.3110 15.46554242  6103"}}, "geometry": {"type": "Point", "coordinates": [159.25211420485402, 41.85892267829515]}}, {"type": "Feature", "properties": {"norad_id": 66573, "name": "STARLINK-35650", "group": "last-30-days", "lat": 36.62798524950493, "lon": -179.6608558129261, "alt_km": 412.4394637924552, "timestamp": "2025-12-24T07:45:04.930181+00:00", "meta": {"OBJECT_NAME": "STARLINK-35650", "OBJECT_ID": "2025-268S", "EPOCH": "2025-12-23T11:08:29.992128", "MEAN_MOTION": 15.50365619, "ECCENTRICITY": 0.0004817, "INCLINATION": 43.0033, "RA_OF_ASC_NODE": 58.2732, "ARG_OF_PERICENTER": 315.3738, "MEAN_ANOMALY": 44.6734, "EPHEMERIS_TYPE": 0, "CLASSIFICATION_TYPE": "U", "NORAD_CAT_ID": 66573, "ELEMENT_SET_NO": 999, "REV_AT_EPOCH": 629, "BSTAR": 0.0013458911, "MEAN_MOTION_DOT": 0.00078839, "MEAN_MOTION_DDOT": 0}, "tle": {"line1": "1 66573U 25268S   25357.46423602  .00078839  00000+0  13459-2 0  9997", "line2": "2 66573  43.0033  58.2732 0004817 315.3738  44.6734 15.50365619  6295"}}, "geometry": {"type": "Point", "coordinates": [-179.6608558129261, 36.62798524950493]}}]}